NORAD_CAT_ID,OBJECT_NAME,OBJECT_TYPE,EPOCH,MEAN_MOTION,ECCENTRICITY,INCLINATION,RA_OF_ASC_NODE,ARG_OF_PERICENTER,MEAN_ANOMALY,BSTAR,MEAN_MOTION_DOT,MEAN_MOTION_DDOT,TLE_LINE0,TLE_LINE1,TLE_LINE2,SEMIMAJOR_AXIS,PERIOD,APOGEE,PERIGEE,DECAYED
52290.0,STARLINK-3772,PAYLOAD,2024-08-10 20:42:51,15.08839262,0.0001618,53.217,164.1019,115.1077,245.0083,5.4642e-06,-2.01e-06,0.0,0 STARLINK-3772,1 52290U 22041AF  24223.86309677 -.00000201  00000-0  54642-5 0  9996,2 52290  53.2170 164.1019 0001618 115.1077 245.0083 15.08839262127576,6917.883,95.438,540.867,538.628,0.0
52290.0,STARLINK-3772,PAYLOAD,2024-08-11 03:04:23,15.08853039,0.000134,53.2162,162.9207,98.5397,261.5747,7.4658e-05,9.01e-06,0.0,0 STARLINK-3772,1 52290U 22041AF  24224.12804758  .00000901  00000-0  74658-4 0  9990,2 52290  53.2162 162.9207 0001340  98.5397 261.5747 15.08853039128820,6917.841,95.437,540.633,538.779,0.0
52290.0,STARLINK-3772,PAYLOAD,2024-08-11 12:36:42,15.08845986,0.0001522,53.2163,161.1292,84.5139,275.6027,9.0217e-05,1.148e-05,0.0,0 STARLINK-3772,1 52290U 22041AF  24224.52548934  .00001148  00000-0  90217-4 0  9998,2 52290  53.2163 161.1292 0001522  84.5139 275.6027 15.08845986128882,6917.862,95.437,540.78,538.674,0.0
52290.0,STARLINK-3772,PAYLOAD,2024-08-12 12:27:30,15.0884123,0.0001653,53.2159,156.6702,79.6743,280.4435,8.7506e-05,1.105e-05,0.0,0 STARLINK-3772,1 52290U 22041AF  24225.51909780  .00001105  00000-0  87506-4 0  9998,2 52290  53.2159 156.6702 0001653  79.6743 280.4435 15.08841230129036,6917.877,95.437,540.885,538.598,0.0
52290.0,STARLINK-3772,PAYLOAD,2024-08-12 18:49:02,15.08843132,0.0001725,53.2159,155.4815,88.7167,271.4023,0.00010385,1.365e-05,0.0,0 STARLINK-3772,1 52290U 22041AF  24225.78405574  .00001365  00000-0  10385-3 0  9997,2 52290  53.2159 155.4815 0001725  88.7167 271.4023 15.08843132127864,6917.871,95.437,540.929,538.542,0.0
52290.0,STARLINK-3772,PAYLOAD,2024-08-13 02:45:59,15.08794722,0.000155,53.2149,153.9988,74.9571,285.1592,-0.00077923,-0.00012653,0.0,0 STARLINK-3772,1 52290U 22041AF  24226.11527616 -.00012653  00000-0 -77923-3 0  9992,2 52290  53.2149 153.9988 0001550  74.9571 285.1592 15.08794722129123,6918.019,95.44,540.956,538.811,0.0
52290.0,STARLINK-3772,PAYLOAD,2024-08-13 12:18:19,15.08788168,0.0001448,53.215,152.2126,87.1265,272.9893,-0.00082165,-0.00013322,0.0,0 STARLINK-3772,1 52290U 22041AF  24226.51272815 -.00013322  00000-0 -82165-3 0  9992,2 52290  53.2150 152.2126 0001448  87.1265 272.9893 15.08788168127979,6918.039,95.441,540.906,538.902,0.0
52290.0,STARLINK-3772,PAYLOAD,2024-08-13 18:39:53,15.08784059,0.0001769,53.2143,151.0203,77.8941,282.225,-0.00064516,-0.00010525,0.0,0 STARLINK-3772,1 52290U 22041AF  24226.77769863 -.00010525  00000-0 -64516-3 0  9996,2 52290  53.2143 151.0203 0001769  77.8941 282.2250 15.08784059128019,6918.051,95.441,541.14,538.693,0.0
52290.0,STARLINK-3772,PAYLOAD,2024-08-14 04:12:09,15.0884562,0.0001174,53.2146,149.2383,85.9994,274.1132,0.00013912,1.927e-05,0.0,0 STARLINK-3772,1 52290U 22041AF  24227.17511093  .00001927  00000-0  13912-3 0  9999,2 52290  53.2146 149.2383 0001174  85.9994 274.1132 15.08845620129289,6917.863,95.437,540.54,538.916,0.0
52290.0,STARLINK-3772,PAYLOAD,2024-08-14 12:09:05,15.08846828,0.0001091,53.2152,147.7513,94.9223,265.1894,0.00016118,2.279e-05,0.0,0 STARLINK-3772,1 52290U 22041AF  24227.50631036  .00002279  00000-0  16118-3 0  9998,2 52290  53.2152 147.7513 0001091  94.9223 265.1894 15.08846828128125,6917.86,95.437,540.479,538.97,0.0
52290.0,STARLINK-3772,PAYLOAD,2024-08-15 11:59:52,15.08837679,0.0001167,53.2144,143.289,86.5934,273.5192,0.00067796,0.00010518,0.0,0 STARLINK-3772,1 52290U 22041AF  24228.49991678  .00010518  00000-0  67796-3 0  9991,2 52290  53.2144 143.2890 0001167  86.5934 273.5192 15.08837679128279,6917.887,95.438,540.56,538.945,0.0
52290.0,STARLINK-3772,PAYLOAD,2024-08-16 00:42:58,15.08834186,0.0001106,53.2144,140.9155,59.8781,300.2321,0.00016042,2.266e-05,0.0,0 STARLINK-3772,1 52290U 22041AF  24229.02983847  .00002266  00000-0  16042-3 0  9999,2 52290  53.2144 140.9155 0001106  59.8781 300.2321 15.08834186129568,6917.898,95.438,540.528,538.998,0.0
52290.0,STARLINK-3772,PAYLOAD,2024-08-16 21:22:57,15.08847635,0.0001027,53.213,137.0468,75.3246,284.786,-7.8207e-05,-1.532e-05,0.0,0 STARLINK-3772,1 52290U 22041AF  24229.89094655 -.00001532  00000-0 -78207-4 0  9993,2 52290  53.2130 137.0468 0001027  75.3246 284.7860 15.08847635129699,6917.857,95.437,540.433,539.012,0.0
52290.0,STARLINK-3772,PAYLOAD,2024-08-17 03:44:29,15.08854308,0.0001176,53.2149,135.856,88.6124,271.5002,-1.244e-05,-4.86e-06,0.0,0 STARLINK-3772,1 52290U 22041AF  24230.15590167 -.00000486  00000-0 -12440-4 0  9997,2 52290  53.2149 135.8560 0001176  88.6124 271.5002 15.08854308129737,6917.837,95.437,540.515,538.888,0.0
52290.0,STARLINK-3772,PAYLOAD,2024-08-17 18:02:59,15.08836985,0.0001341,53.215,133.1747,122.7536,237.3586,-2.1157e-05,-6.25e-06,0.0,0 STARLINK-3772,1 52290U 22041AF  24230.75207204 -.00000625  00000-0 -21157-4 0  9990,2 52290  53.2150 133.1747 0001341 122.7536 237.3586 15.08836985129826,6917.89,95.438,540.682,538.827,0.0
52290.0,STARLINK-3772,PAYLOAD,2024-08-18 00:24:31,15.08839726,0.0001266,53.2154,131.9907,101.7012,258.4122,9.4832e-05,1.222e-05,0.0,0 STARLINK-3772,1 52290U 22041AF  24231.01703010  .00001222  00000-0  94832-4 0  9998,2 52290  53.2154 131.9907 0001266 101.7012 258.4122 15.08839726128652,6917.881,95.438,540.622,538.87,0.0
52290.0,STARLINK-3772,PAYLOAD,2024-08-18 21:04:32,15.08835447,0.0001388,53.2158,128.1262,105.897,254.2175,-4.9439e-05,-1.075e-05,0.0,0 STARLINK-3772,1 52290U 22041AF  24231.87815480 -.00001075  00000-0 -49439-4 0  9998,2 52290  53.2158 128.1262 0001388 105.8970 254.2175 15.08835447129997,6917.894,95.438,540.72,538.799,0.0
52290.0,STARLINK-3772,PAYLOAD,2024-08-18 22:39:55,15.08835176,0.000137,53.2159,127.8291,105.3562,254.7581,-4.7543e-05,-1.044e-05,0.0,0 STARLINK-3772,1 52290U 22041AF  24231.94439517 -.00001044  00000-0 -47543-4 0  9999,2 52290  53.2159 127.8291 0001370 105.3562 254.7581 15.08835176128791,6917.895,95.438,540.708,538.812,0.0
52290.0,STARLINK-3772,PAYLOAD,2024-08-19 09:47:37,15.08834443,0.0001274,53.2161,125.7449,86.983,273.1308,6.5145e-07,-2.77e-06,0.0,0 STARLINK-3772,1 52290U 22041AF  24232.40807701 -.00000277  00000-0  65145-6 0  9991,2 52290  53.2161 125.7449 0001274  86.9830 273.1308 15.08834443128867,6917.897,95.438,540.644,538.881,0.0
52290.0,STARLINK-3772,PAYLOAD,2024-08-19 22:30:43,15.08831045,0.0001401,53.2163,123.367,94.1544,265.9609,4.892e-05,4.91e-06,0.0,0 STARLINK-3772,1 52290U 22041AF  24232.93800550  .00000491  00000-0  48920-4 0  9991,2 52290  53.2163 123.3670 0001401  94.1544 265.9609 15.08831045130157,6917.908,95.438,540.742,538.804,0.0
52290.0,STARLINK-3772,PAYLOAD,2024-08-21 01:32:15,15.08855418,0.0001395,53.2162,118.3116,83.2536,276.8615,0.00033441,5.04e-05,0.0,0 STARLINK-3772,1 52290U 22041AF  24234.06407057  .00005040  00000-0  33441-3 0  9998,2 52290  53.2162 118.3116 0001395  83.2536 276.8615 15.08855418130324,6917.833,95.437,540.663,538.733,0.0
52290.0,STARLINK-3772,PAYLOAD,2024-08-21 20:36:53,15.08841018,0.0001566,53.2151,114.7421,112.5065,247.6093,9.2859e-05,1.19e-05,0.0,0 STARLINK-3772,1 52290U 22041AF  24234.85895780  .00001190  00000-0  92859-4 0  9990,2 52290  53.2151 114.7421 0001566 112.5065 247.6093 15.08841018130444,6917.877,95.437,540.826,538.659,0.0
